{
  "norad_id": 57745,
  "name": "STARLINK-30362",
  "history": [
    {
      "epoch": "2026-03-28T00:12:42.589728Z",
      "apogee_km": 486.3820407122903,
      "perigee_km": 484.7460089360129,
      "latitude_deg": -2.0577937913231025e-05,
      "longitude_deg": -119.23801429028038,
      "height_km": 485.26775879953067,
      "semi_major_axis_km": 6863.701024824151,
      "eccentricity": 0.00011918,
      "inclination_deg": 43.0033,
      "raan_deg": 69.3749,
      "arg_perigee_deg": 275.1376,
      "mean_anomaly_deg": 84.9339,
      "mean_motion_rev_day": 15.26740496
    },
    {
      "epoch": "2026-03-30T05:35:46.747680Z",
      "apogee_km": 486.4665266285201,
      "perigee_km": 484.6627458385192,
      "latitude_deg": 5.472825503344546e-05,
      "longitude_deg": 145.25721856869555,
      "height_km": 485.4083653520808,
      "semi_major_axis_km": 6863.70163623352,
      "eccentricity": 0.0001314,
      "inclination_deg": 43.0043,
      "raan_deg": 56.8298,
      "arg_perigee_deg": 265.768,
      "mean_anomaly_deg": 94.3022,
      "mean_motion_rev_day": 15.26740292
    }
  ]
}